{"type": "FeatureCollection", "features": [ {"type": "Feature", "properties": {"norad_id": 42917, "name": "QZS-3 (QZSS/PRN 199)", "group": "gnss", "lat": 0.038977507703733684, "lon": -72.6664110327758, "alt_km": 35777.197964694846, "timestamp": "2025-12-06T05:40:09.483834+00:00", "meta": {"OBJECT_NAME": "QZS-3 (QZSS/PRN 199)", "OBJECT_ID": "2017-048A", "EPOCH": "2025-12-05T02:58:38.763264", "MEAN_MOTION": 1.00275163, "ECCENTRICITY": 0.00021993, "INCLINATION": 0.0707, "RA_OF_ASC_NODE": 217.7047, "ARG_OF_PERICENTER": 39.9277, "MEAN_ANOMALY": 348.215, "EPHEMERIS_TYPE": 0, "CLASSIFICATION_TYPE": "U", "NORAD_CAT_ID": 42917, "ELEMENT_SET_NO": 999, "REV_AT_EPOCH": 3031, "BSTAR": 0, "MEAN_MOTION_DOT": -3.35e-06, "MEAN_MOTION_DDOT": 0}, "tle": {"line1": "1 42917U 17048A   25339.12405976 -.00000335  00000+0  00000+0 0  9999", "line2": "2 42917   0.0707 217.7047 0002199  39.9277 348.2150  1.00275163 30310"}}, "geometry": {"type": "Point", "coordinates": [-72.6664110327758, 0.038977507703733684]}}, {"type": "Feature", "properties": {"norad_id": 42939, "name": "COSMOS 2522 (752)", "group": "gnss", "lat": -14.679064945161638, "lon": -168.86594825299318, "alt_km": 19139.997940603007, "timestamp": "2025-12-06T05:40:09.483848+00:00", "meta": {"OBJECT_NAME": "COSMOS 2522 (752)", "OBJECT_ID": "2017-055A", "EPOCH": "2025-12-02T23:20:47.282208", "MEAN_MOTION": 2.1310185, "ECCENTRICITY": 0.00065327, "INCLINATION": 64.0758, "RA_OF_ASC_NODE": 198.5618, "ARG_OF_PERICENTER": 226.0683, "MEAN_ANOMALY": 133.9743, "EPHEMERIS_TYPE": 0, "CLASSIFICATION_TYPE": "U", "NORAD_CAT_ID": 42939, "ELEMENT_SET_NO": 999, "REV_AT_EPOCH": 6379, "BSTAR": 0, "MEAN_MOTION_DOT": 1.07e-06, "MEAN_MOTION_DDOT": 0}, "tle": {"line1": "1 42939U 17055A   25336.97276947  .00000107  00000+0  00000+0 0  9991", "line2": "2 42939  64.0758 198.5618 0006532 226.0683 133.9743  2.13101850 63796"}}, "geometry": {"type": "Point", "coordinates": [-168.86594825299318, -14.679064945161638]}}, {"type": "Feature", "properties": {"norad_id": 42965, "name": "QZS-4 (QZSS/PRN 195)", "group": "gnss", "lat": -25.983860732126768, "lon": -49.25709548253519, "alt_km": 33459.82867290052, "timestamp": "2025-12-06T05:40:09.483860+00:00", "meta": {"OBJECT_NAME": "QZS-4 (QZSS/PRN 195)", "OBJECT_ID": "2017-062A", "EPOCH": "2025-12-02T08:37:38.758368", "MEAN_MOTION": 1.0025504, "ECCENTRICITY": 0.07524683, "INCLINATION": 40.2317, "RA_OF_ASC_NODE": 346.0052, "ARG_OF_PERICENTER": 271.2474, "MEAN_ANOMALY": 80.8165, "EPHEMERIS_TYPE": 0, "CLASSIFICATION_TYPE": "U", "NORAD_CAT_ID": 42965, "ELEMENT_SET_NO": 999, "REV_AT_EPOCH": 2983, "BSTAR": 0, "MEAN_MOTION_DOT": -3.15e-06, "MEAN_MOTION_DDOT": 0}, "tle": {"line1": "1 42965U 17062A   25336.35947637 -.00000315  00000+0  00000+0 0  9993", "line2": "2 42965  40.2317 346.0052 0752468 271.2474  80.8165  1.00255040 29831"}}, "geometry": {"type": "Point", "coordinates": [-49.25709548253519, -25.983860732126768]}}, {"type": "Feature", "properties": {"norad_id": 43001, "name": "BEIDOU-3 M1 (C19)", "group": "gnss", "lat": -56.44288101883789, "lon": -15.477232290152315, "alt_km": 21512.970176528725, "timestamp": "2025-12-06T05:40:09.483874+00:00", "meta": {"OBJECT_NAME": "BEIDOU-3 M1 (C19)", "OBJECT_ID": "2017-069A", "EPOCH": "2025-12-03T03:27:53.485056", "MEAN_MOTION": 1.86230745, "ECCENTRICITY": 0.00088373, "INCLINATION": 56.5186, "RA_OF_ASC_NODE": 69.5514, "ARG_OF_PERICENTER": 303.7187, "MEAN_ANOMALY": 56.1997, "EPHEMERIS_TYPE": 0, "CLASSIFICATION_TYPE": "U", "NORAD_CAT_ID": 43001, "ELEMENT_SET_NO": 999, "REV_AT_EPOCH": 5495, "BSTAR": 0, "MEAN_MOTION_DOT": -4.9e-07, "MEAN_MOTION_DDOT": 0}, "tle": {"line1": "1 43001U 17069A   25337.14436904 -.00000049  00000+0  00000+0 0  9994", "line2": "2 43001  56.5186  69.5514 0008837 303.7187  56.1997  1.86230745 54952"}}, "geometry": {"type": "Point", "coordinates": [-15.477232290152315, -56.44288101883789]}}, {"type": "Feature", "properties": {"norad_id": 43002, "name": "BEIDOU-3 M2 (C20)", "group": "gnss", "lat": -36.74076723721989, "lon": 39.9392618954606, "alt_km": 21515.963271284552, "timestamp": "2025-12-06T05:40:09.483886+00:00", "meta": {"OBJECT_NAME": "BEIDOU-3 M2 (C20)", "OBJECT_ID": "2017-069B", "EPOCH": "2025-12-04T16:38:46.347936", "MEAN_MOTION": 1.862306, "ECCENTRICITY": 0.00062566, "INCLINATION": 56.5195, "RA_OF_ASC_NODE": 69.536, "ARG_OF_PERICENTER": 331.7329, "MEAN_ANOMALY": 28.2399, "EPHEMERIS_TYPE": 0, "CLASSIFICATION_TYPE": "U", "NORAD_CAT_ID": 43002, "ELEMENT_SET_NO": 999, "REV_AT_EPOCH": 5497, "BSTAR": 0, "MEAN_MOTION_DOT": -4.9e-07, "MEAN_MOTION_DDOT": 0}, "tle": {"line1": "1 43002U 17069B   25338.69359199 -.00000049  00000+0  00000+0 0  9996", "line2": "2 43002  56.5195  69.5360 0006256 331.7329  28.2399  1.86230600 54972"}}, "geometry": {"type": "Point", "coordinates": [39.9392618954606, -36.74076723721989]}}, {"type": "Feature", "properties": {"norad_id": 43055, "name": "GSAT0215 (GALILEO 19)", "group": "gnss", "lat": 41.32883442195051, "lon": 9.059565084389895, "alt_km": 23221.895831941423, "timestamp": "2025-12-06T05:40:09.483898+00:00", "meta": {"OBJECT_NAME": "GSAT0215 (GALILEO 19)", "OBJECT_ID": "2017-079A", "EPOCH": "2025-11-29T13:52:03.216864", "MEAN_MOTION": 1.70473718, "ECCENTRICITY": 0.0001588, "INCLINATION": 55.1353, "RA_OF_ASC_NODE": 227.0004, "ARG_OF_PERICENTER": 310.5234, "MEAN_ANOMALY": 49.536, "EPHEMERIS_TYPE": 0, "CLASSIFICATION_TYPE": "U", "NORAD_CAT_ID": 43055, "ELEMENT_SET_NO": 999, "REV_AT_EPOCH": 4958, "BSTAR": 0, "MEAN_MOTION_DOT": 2.7e-07, "MEAN_MOTION_DDOT": 0}, "tle": {"line1": "1 43055U 17079A   25333.57781501  .00000027  00000+0  00000+0 0  9998", "line2": "2 43055  55.1353 227.0004 0001588 310.5234  49.5360  1.70473718 49587"}}, "geometry": {"type": "Point", "coordinates": [9.059565084389895, 41.32883442195051]}}, {"type": "Feature", "properties": {"norad_id": 43056, "name": "GSAT0216 (GALILEO 20)", "group": "gnss", "lat": -40.55598177015692, "lon": -169.75741807585146, "alt_km": 23219.124937147302, "timestamp": "2025-12-06T05:40:09.483909+00:00", "meta": {"OBJECT_NAME": "GSAT0216 (GALILEO 20)", "OBJECT_ID": "2017-079B", "EPOCH": "2025-12-03T23:24:20.577888", "MEAN_MOTION": 1.70473886, "ECCENTRICITY": 0.0002683, "INCLINATION": 55.1334, "RA_OF_ASC_NODE": 226.8793, "ARG_OF_PERICENTER": 313.43, "MEAN_ANOMALY": 46.6407, "EPHEMERIS_TYPE": 0, "CLASSIFICATION_TYPE": "U", "NORAD_CAT_ID": 43056, "ELEMENT_SET_NO": 999, "REV_AT_EPOCH": 4967, "BSTAR": 0, "MEAN_MOTION_DOT": 4.1e-07, "MEAN_MOTION_DDOT": 0}, "tle": {"line1": "1 43056U 17079B   25337.97523817  .00000041  00000+0  00000+0 0  9997", "line2": "2 43056  55.1334 226.8793 0002683 313.4300  46.6407  1.70473886 49678"}}, "geometry": {"type": "Point", "coordinates": [-169.75741807585146, -40.55598177015692]}}, {"type": "Feature", "properties": {"norad_id": 43057, "name": "GSAT0217 (GALILEO 21)", "group": "gnss", "lat": 6.407581232759216, "lon": 42.33692299243978, "alt_km": 23229.737342846027, "timestamp": "2025-12-06T05:40:09.483920+00:00", "meta": {"OBJECT_NAME": "GSAT0217 (GALILEO 21)", "OBJECT_ID": "2017-079C", "EPOCH": "2025-12-04T04:42:09.816480", "MEAN_MOTION": 1.70473692, "ECCENTRICITY": 0.00028457, "INCLINATION": 55.1313, "RA_OF_ASC_NODE": 226.8712, "ARG_OF_PERICENTER": 336.0147, "MEAN_ANOMALY": 24.0661, "EPHEMERIS_TYPE": 0, "CLASSIFICATION_TYPE": "U", "NORAD_CAT_ID": 43057, "ELEMENT_SET_NO": 999, "REV_AT_EPOCH": 4966, "BSTAR": 0, "MEAN_MOTION_DOT": 4.1e-07, "MEAN_MOTION_DDOT": 0}, "tle": {"line1": "1 43057U 17079C   25338.19594695  .00000041  00000+0  00000+0 0  9995", "line2": "2 43057  55.1313 226.8712 0002845 336.0147  24.0661  1.70473692 49663"}}, "geometry": {"type": "Point", "coordinates": [42.33692299243978, 6.407581232759216]}}, {"type": "Feature", "properties": {"norad_id": 43058, "name": "GSAT0218 (GALILEO 22)", "group": "gnss", "lat": 29.681546246862865, "lon": -109.79138791646449, "alt_km": 23219.010700133218, "timestamp": "2025-12-06T05:40:09.483931+00:00", "meta": {"OBJECT_NAME": "GSAT0218 (GALILEO 22)", "OBJECT_ID": "2017-079D", "EPOCH": "2025-12-03T05:49:40.297728", "MEAN_MOTION": 1.70473824, "ECCENTRICITY": 0.00029171, "INCLINATION": 55.1321, "RA_OF_ASC_NODE": 226.8951, "ARG_OF_PERICENTER": 304.1404, "MEAN_ANOMALY": 55.9211, "EPHEMERIS_TYPE": 0, "CLASSIFICATION_TYPE": "U", "NORAD_CAT_ID": 43058, "ELEMENT_SET_NO": 999, "REV_AT_EPOCH": 4967, "BSTAR": 0, "MEAN_MOTION_DOT": 3.9e-07, "MEAN_MOTION_DDOT": 0}, "tle": {"line1": "1 43058U 17079D   25337.24282752  .00000039  00000+0  00000+0 0  9996", "line2": "2 43058  55.1321 226.8951 0002917 304.1404  55.9211  1.70473824 49672"}}, "geometry": {"type": "Point", "coordinates": [-109.79138791646449, 29.681546246862865]}}, {"type": "Feature", "properties": {"norad_id": 43107, "name": "BEIDOU-3 M7 (C27)", "group": "gnss", "lat": 40.83583685136323, "lon": 90.95971069033793, "alt_km": 21518.871797697655, "timestamp": "2025-12-06T05:40:09.483947+00:00", "meta": {"OBJECT_NAME": "BEIDOU-3 M7 (C27)", "OBJECT_ID": "2018-003A", "EPOCH": "2025-12-04T23:22:06.674304", "MEAN_MOTION": 1.86232224, "ECCENTRICITY": 0.00026381, "INCLINATION": 54.5036, "RA_OF_ASC_NODE": 309.0851, "ARG_OF_PERICENTER": 70.1822, "MEAN_ANOMALY": 289.8293, "EPHEMERIS_TYPE": 0, "CLASSIFICATION_TYPE": "U", "NORAD_CAT_ID": 43107, "ELEMENT_SET_NO": 999, "REV_AT_EPOCH": 5373, "BSTAR": 0, "MEAN_MOTION_DOT": -7e-07, "MEAN_MOTION_DDOT": 0}, "tle": {"line1": "1 43107U 18003A   25338.97368836 -.00000070  00000+0  00000+0 0  9994", "line2": "2 43107  54.5036 309.0851 0002638  70.1822 289.8293  1.86232224 53734"}}, "geometry": {"type": "Point", "coordinates": [90.95971069033793, 40.83583685136323]}}]}